KUIPER-00074            
1 64821U 25151F   25206.75002315 -.00021326  00000+0 -60171-3 0  9996
2 64821  51.8771 241.8968 0005373 180.1009  69.6384 15.35373533  2463
KUIPER-00075            
1 64822U 25151G   25206.75002315 -.00020903  00000+0 -58883-3 0  9994
2 64822  51.8782 241.8965 0005212 172.1038  81.1037 15.35410761  1309
KUIPER-00076            
1 64823U 25151H   25206.75002315 -.00021572  00000+0 -61138-3 0  9995
2 64823  51.8770 241.9019 0005083 180.6312  66.7715 15.35243980  2695
KUIPER-00077            
1 64824U 25151J   25206.75002315 -.00020939  00000+0 -59593-3 0  9994
2 64824  51.8782 241.9209 0005709 187.0975  53.9011 15.35089237  1308
KUIPER-00078            
1 64825U 25151K   25206.75002315 -.00021974  00000+0 -62539-3 0  9999
2 64825  51.8775 241.9156 0005771 190.3096  51.7193 15.35120927  1479
KUIPER-00079            
1 64826U 25151L   25206.75002315 -.00020905  00000+0 -58236-3 0  9992
2 64826  51.8778 241.8739 0006185 166.1250  96.5781 15.35748166  1305
KUIPER-00080            
1 64827U 25151M   25206.75002315 -.00021231  00000+0 -59707-3 0  9990
2 64827  51.8782 241.8966 0005076 175.5438  77.3608 15.35473258  1596
KUIPER-00082            
1 64828U 25151N   25206.75002315 -.00020506  00000+0 -57424-3 0  9999
2 64828  51.8775 241.8841 0005560 170.8406  85.8354 15.35579237  1587
KUIPER-00083            
1 64829U 25151P   25206.75002315 -.00021575  00000+0 -61308-3 0  9993
2 64829  51.8770 241.9053 0005366 179.2120  66.5172 15.35159748  2642
KUIPER-00084            
1 64830U 25151Q   25206.75002315 -.00021166  00000+0 -60326-3 0  9990
2 64830  51.8779 241.9248 0005861 192.7834  45.4117 15.35051150  1306
KUIPER-00085            
1 64831U 25151R   25206.75002315 -.00021583  00000+0 -60216-3 0  9992
2 64831  51.8778 241.8759 0005960 166.3439  95.3435 15.35725220  2405
KUIPER-00086            
1 64832U 25151S   25206.75002315 -.00017771  00000+0 -50513-3 0  9996
2 64832  51.8772 241.9173 0005389 189.0986  51.5820 15.35015054  1302
KUIPER-00087            
1 64833U 25151T   25206.75002315 -.00021726  00000+0 -61180-3 0  9994
2 64833  51.8780 241.8898 0005468 167.7721  88.1431 15.35444990  2594
KUIPER-00089            
1 64834U 25151U   25206.75002315 -.00021756  00000+0 -61719-3 0  9996
2 64834  51.8783 241.9122 0005615 186.4886  58.7752 15.35214920  2534
KUIPER-00090            
1 64835U 25151V   25206.75002315 -.00021817  00000+0 -62362-3 0  9990
2 64835  51.8779 241.9266 0005945 194.7088  42.6132 15.34979434  1306
KUIPER-00091            
1 64836U 25151W   25206.75002315 -.00021085  00000+0 -58935-3 0  9999
2 64836  51.8776 241.8770 0005957 167.3613  92.8165 15.35651674  2405
KUIPER-00092            
1 64837U 25151X   25206.75002315 -.00020527  00000+0 -57750-3 0  9994
2 64837  51.8772 241.8904 0005607 176.2945  76.7162 15.35435601  1711
KUIPER-00093            
1 64838U 25151Y   25206.75002315 -.00021506  00000+0 -60878-3 0  9998
2 64838  51.8783 241.9122 0005261 178.8882  66.4572 15.35276965  2371
KUIPER-00094            
1 64839U 25151Z   25206.75002315 -.00020572  00000+0 -57756-3 0  9992
2 64839  51.8773 241.8883 0005403 173.7187  80.4974 15.35503094  1685
